[{"OBJECT_NAME":"TIANPING 2A","OBJECT_ID":"2022-032A","EPOCH":"2026-03-09T22:58:37.953408","MEAN_MOTION":14.9690979,"ECCENTRICITY":0.00109299,"INCLINATION":97.5994,"RA_OF_ASC_NODE":109.5163,"ARG_OF_PERICENTER":146.1091,"MEAN_ANOMALY":214.0831,"EPHEMERIS_TYPE":0,"CLASSIFICATION_TYPE":"U","NORAD_CAT_ID":52153,"ELEMENT_SET_NO":999,"REV_AT_EPOCH":21499,"BSTAR":3.4221979e-5,"MEAN_MOTION_DOT":3.37e-6,"MEAN_MOTION_DDOT":0},{"OBJECT_NAME":"STARLINK-5918","OBJECT_ID":"2023-037AB","EPOCH":"2026-03-09T23:23:27.567168","MEAN_MOTION":14.98331665,"ECCENTRICITY":0.00026174,"INCLINATION":69.9983,"RA_OF_ASC_NODE":283.7065,"ARG_OF_PERICENTER":269.9729,"MEAN_ANOMALY":90.113,"EPHEMERIS_TYPE":0,"CLASSIFICATION_TYPE":"U","NORAD_CAT_ID":55939,"ELEMENT_SET_NO":999,"REV_AT_EPOCH":16402,"BSTAR":6.8994491e-5,"MEAN_MOTION_DOT":7.3e-6,"MEAN_MOTION_DDOT":0}]
